[{"OBJECT_NAME":"STARLINK-33858","OBJECT_ID":"2025-094X","EPOCH":"2026-03-09T21:19:27.102432","MEAN_MOTION":14.98295766,"ECCENTRICITY":0.00030228,"INCLINATION":70.0024,"RA_OF_ASC_NODE":233.9225,"ARG_OF_PERICENTER":280.7717,"MEAN_ANOMALY":79.3101,"EPHEMERIS_TYPE":0,"CLASSIFICATION_TYPE":"U","NORAD_CAT_ID":63885,"ELEMENT_SET_NO":999,"REV_AT_EPOCH":4723,"BSTAR":-0.0026464788,"MEAN_MOTION_DOT":-0.00031501,"MEAN_MOTION_DDOT":0},{"OBJECT_NAME":"IRIDIUM 33 DEB","OBJECT_ID":"1997-051PF","EPOCH":"2026-03-08T20:08:48.628608","MEAN_MOTION":15.0410284,"ECCENTRICITY":0.00301759,"INCLINATION":86.2075,"RA_OF_ASC_NODE":10.7469,"ARG_OF_PERICENTER":217.121,"MEAN_ANOMALY":142.7938,"EPHEMERIS_TYPE":0,"CLASSIFICATION_TYPE":"U","NORAD_CAT_ID":35080,"ELEMENT_SET_NO":999,"REV_AT_EPOCH":70973,"BSTAR":0.01054144,"MEAN_MOTION_DOT":0.00150308,"MEAN_MOTION_DDOT":0}]
